SPAWAR-CAL-R            
1 43776U 18099U   26067.65115975  .00003570  00000+0  25336-3 0  9990
2 43776  97.4524 111.5817 0019701 348.9052  11.1737 15.05212097396878
STARLINK-34971          
1 65256U 25179X   26068.71537308  .00003461  00000+0  24396-3 0  9994
2 65256  97.6028 113.0124 0001074 111.6129 248.5213 15.05653590 31551
